#aV2019  1 26  0  0  0.00000000     288 DD+AD WGS84 FIT  NGA
## 2037 518400.00000000   300.00000000 58509 0.0000000000000
+   31     1  2  3  5  6  7  8  9 10 11 12 13 14 15 16 17 18
+         19 20 21 22 23 24 25 26 27 28 29 30 31 32  0  0  0
+          0  0  0  0  0  0  0  0  0  0  0  0  0  0  0  0  0
+          0  0  0  0  0  0  0  0  0  0  0  0  0  0  0  0  0
+          0  0  0  0  0  0  0  0  0  0  0  0  0  0  0  0  0
++         2  2  2  2  2  2  2  2  2  2  2  2  2  2  2  2  2
++         2  2  2  2  2  2  2  2  2  2  2  2  2  2  0  0  0
++         0  0  0  0  0  0  0  0  0  0  0  0  0  0  0  0  0
++         0  0  0  0  0  0  0  0  0  0  0  0  0  0  0  0  0
++         0  0  0  0  0  0  0  0  0  0  0  0  0  0  0  0  0
%c cc cc ccc ccc cccc cccc cccc cccc ccccc ccccc ccccc ccccc
%c cc cc ccc ccc cccc cccc cccc cccc ccccc ccccc ccccc ccccc
%f  0.0000000  0.000000000  0.00000000000  0.000000000000000
%f  0.0000000  0.000000000  0.00000000000  0.000000000000000
%i    0    0    0    0      0      0      0      0         0
%i    0    0    0    0      0      0      0      0         0
/*      NGA, ST. LOUIS,MO.                                  
/*   EPHEMERIS COMPUTED FROM 2 DAYS OF DATA                 
/*   EPOCHA v3 SMOOTHER                                     
/*   G1762 IERS2010 SATAF SATAPC                            
*  2019  1 26  5  5  0.00000000
P  1  19151.333940   8634.377685  16266.813885   -151.785593                    
V  1  10426.734293  18080.883239 -21346.354694     -0.066027                    
P  2 -14002.673294 -22462.667030   3803.602955   -123.014648                    
V  2   4711.447077   1505.968263  30981.125671     -0.100097                    
P  3  16788.766341  -2097.477383  20417.373058    179.520964                    
V  3 -10392.671207  23881.252763  11049.043025      0.022494                    
P  5  -6652.802177 -17734.264817 -18657.085359      0.931109                    
V  5  11225.788017 -20773.995170  16044.404885      0.001050                    
P  6  -4090.855607 -22400.777209  13695.182431    289.298403                    
V  6  11349.828160  13196.450370  25074.034122     -0.078131                    
P  7  13971.707941  -6328.220583 -21465.061162     44.698689                    
V  7  15265.064016  23263.084475   2590.748851     -0.071509                    
P  8  22447.450262   6695.997883 -12648.471141   -130.417338                    
V  8 -15814.745813   3369.529542 -25997.593335     -0.013866                    
P  9  23671.885128  -8362.182445  -8734.388991    467.067996                    
V  9  11241.457762   1816.097915  28876.463939     -0.048321                    
P 10 -10819.196494  24126.231781    913.383249    128.986466                    
V 10  -3116.635138   -262.479338 -31893.901104     -0.068914                    
P 11  24084.945103   8014.204801   6875.562470   -669.973356                    
V 11   5925.482815   8746.313546 -28958.244785      0.055234                    
P 12 -15504.779911  -1310.806148  21294.387599    273.303591                    
V 12  12970.394407 -24233.815627   8054.528239     -0.031312                    
P 13 -15785.529947 -12674.538633 -17330.295333    -77.030917                    
V 13  21791.797140   -538.068759 -19555.509684      0.013134                    
P 14   -458.249445  15364.089537  21962.156854    -92.534218                    
V 14 -27167.960581   -191.577789   -615.436862      0.006528                    
P 15 -24349.790757  -3960.967460 -10595.016536   -330.667582                    
V 15  12342.674986  -5099.417327 -26723.756628      0.016126                    
P 16   4966.641730  17214.734381 -19623.224575    -15.075104                    
V 16 -13498.713859  20637.462726  15236.954749     -0.024019                    
P 17  11008.650013 -13744.473014  20262.402777      0.564512                    
V 17  24807.406000    261.150688 -13674.291800      0.054229                    
P 18  19142.864549  16824.148040   7254.470188     19.527768                    
V 18   3613.100939   9580.008887 -29646.858548      0.037602                    
P 19   1101.211096 -14603.373736  21868.401361   -359.389226                    
V 19  28404.264344    679.818710   -863.040384      0.040322                    
P 20 -14300.411173  20337.291778  -9267.448793    521.532272                    
V 20    509.302617 -12204.724050 -28046.087721      0.003961                    
P 21 -11286.584330  10125.617110 -21004.478502   -262.222888                    
V 21 -17532.621718 -22652.936712  -1348.800778      0.070246                    
P 22  14769.506544   6302.045261  21389.930524   -631.183535                    
V 22  -9959.210937  24834.698776   -395.722239     -0.084839                    
P 23  26716.000779  -1144.859615   1859.941923   -199.346423                    
V 23  -1683.327309   3171.116477  30976.610166      0.012081                    
P 24 -20356.155270 -11854.028159  12435.915277    -61.301259                    
V 24  -7498.208190 -14324.917022 -25298.345044     -0.005002                    
P 25 -17620.516785  11054.220989  16169.863173   -711.263848                    
V 25   7463.067224 -19690.517223  21585.777689     -0.054360                    
P 26  -1085.505287  23469.665179 -12234.093415    106.791916                    
V 26  -8838.439919  13117.544436  26142.311961      0.105106                    
P 27  13857.642076  12011.394803 -19403.759708    -55.664148                    
V 27 -24163.629722   2825.507169 -15297.660118     -0.068714                    
P 28  13277.040541 -23056.707320    582.042753    762.992756                    
V 28   1724.937250   1041.778031 -32191.535585      0.010404                    
P 29 -25689.949159   3950.458681  -5474.941186    284.986674                    
V 29  -6933.568633  -1898.643924  31281.705646     -0.084863                    
P 30   5843.489474 -17230.838418 -19276.628979    -42.001314                    
V 30  14297.608604  20118.595971 -13809.198635     -0.062418                    
P 31   5248.346693  23115.880582  11516.308790     63.148275                    
V 31 -10260.711939 -10975.865248  27162.518190     -0.026557                    
P 32  -7897.283884  15091.606512  20394.214681   -257.603727                    
V 32 -25845.680264   1091.691326 -10939.822353      0.176954                    
EOF
